{"type": "FeatureCollection", "features": [{"type": "Feature", "properties": {"norad_id": 50032, "name": "COSMOS 1408 DEB", "group": "cosmos-1408-debris", "lat": 70.28791767207952, "lon": 65.1027747295326, "alt_km": 420.93812385096044, "timestamp": "2025-12-27T03:58:44.422759+00:00", "meta": {"OBJECT_NAME": "COSMOS 1408 DEB", "OBJECT_ID": "1982-092RU", "EPOCH": "2025-12-26T13:41:14.334720", "MEAN_MOTION": 15.45830643, "ECCENTRICITY": 0.0016663, "INCLINATION": 82.5631, "RA_OF_ASC_NODE": 44.3315, "ARG_OF_PERICENTER": 157.9043, "MEAN_ANOMALY": 202.2928, "EPHEMERIS_TYPE": 0, "CLASSIFICATION_TYPE": "U", "NORAD_CAT_ID": 50032, "ELEMENT_SET_NO": 999, "REV_AT_EPOCH": 22817, "BSTAR": 0.0001035, "MEAN_MOTION_DOT": 5.085e-05, "MEAN_MOTION_DDOT": 0}, "tle": {"line1": "1 50032U 82092RU  25360.57030480  .00005085  00000+0  10350-3 0  9993", "line2": "2 50032  82.5631  44.3315 0016663 157.9043 202.2928 15.45830643228172"}}, "geometry": {"type": "Point", "coordinates": [65.1027747295326, 70.28791767207952]}}, {"type": "Feature", "properties": {"norad_id": 50058, "name": "COSMOS 1408 DEB", "group": "cosmos-1408-debris", "lat": 12.821864222762152, "lon": -127.4597801072636, "alt_km": 379.54896228014786, "timestamp": "2025-12-27T03:58:44.422776+00:00", "meta": {"OBJECT_NAME": "COSMOS 1408 DEB", "OBJECT_ID": "1982-092SW", "EPOCH": "2025-12-26T13:27:27.815040", "MEAN_MOTION": 15.64941928, "ECCENTRICITY": 0.0015789, "INCLINATION": 82.6117, "RA_OF_ASC_NODE": 54.8668, "ARG_OF_PERICENTER": 51.6481, "MEAN_ANOMALY": 308.6195, "EPHEMERIS_TYPE": 0, "CLASSIFICATION_TYPE": "U", "NORAD_CAT_ID": 50058, "ELEMENT_SET_NO": 999, "REV_AT_EPOCH": 23020, "BSTAR": 0.00032591, "MEAN_MOTION_DOT": 0.00032187, "MEAN_MOTION_DDOT": 0}, "tle": {"line1": "1 50058U 82092SW  25360.56073860  .00032187  00000+0  32591-3 0  9993", "line2": "2 50058  82.6117  54.8668 0015789  51.6481 308.6195 15.64941928230205"}}, "geometry": {"type": "Point", "coordinates": [-127.4597801072636, 12.821864222762152]}}, {"type": "Feature", "properties": {"norad_id": 50404, "name": "COSMOS 1408 DEB", "group": "cosmos-1408-debris", "lat": -45.85067052545197, "lon": 28.35434563459507, "alt_km": 497.06281169534213, "timestamp": "2025-12-27T03:58:44.422788+00:00", "meta": {"OBJECT_NAME": "COSMOS 1408 DEB", "OBJECT_ID": "1982-092ADS", "EPOCH": "2025-12-26T12:44:23.535744", "MEAN_MOTION": 15.16044724, "ECCENTRICITY": 0.0165811, "INCLINATION": 82.2023, "RA_OF_ASC_NODE": 200.8914, "ARG_OF_PERICENTER": 151.3558, "MEAN_ANOMALY": 209.691, "EPHEMERIS_TYPE": 0, "CLASSIFICATION_TYPE": "U", "NORAD_CAT_ID": 50404, "ELEMENT_SET_NO": 999, "REV_AT_EPOCH": 21402, "BSTAR": 0.0031822, "MEAN_MOTION_DOT": 0.00087949, "MEAN_MOTION_DDOT": 0}, "tle": {"line1": "1 50404U 82092ADS 25360.53082796  .00087949  00000+0  31822-2 0  9994", "line2": "2 50404  82.2023 200.8914 0165811 151.3558 209.6910 15.16044724214026"}}, "geometry": {"type": "Point", "coordinates": [28.35434563459507, -45.85067052545197]}}, {"type": "Feature", "properties": {"norad_id": 50621, "name": "COSMOS 1408 DEB", "group": "cosmos-1408-debris", "lat": 25.400139989085233, "lon": -124.39915417398248, "alt_km": 382.6683237590287, "timestamp": "2025-12-27T03:58:44.422799+00:00", "meta": {"OBJECT_NAME": "COSMOS 1408 DEB", "OBJECT_ID": "1982-092ALR", "EPOCH": "2025-12-26T04:11:24.957024", "MEAN_MOTION": 15.573508, "ECCENTRICITY": 0.0029295, "INCLINATION": 82.5694, "RA_OF_ASC_NODE": 60.187, "ARG_OF_PERICENTER": 104.4386, "MEAN_ANOMALY": 256.0123, "EPHEMERIS_TYPE": 0, "CLASSIFICATION_TYPE": "U", "NORAD_CAT_ID": 50621, "ELEMENT_SET_NO": 999, "REV_AT_EPOCH": 22459, "BSTAR": 0.00035611, "MEAN_MOTION_DOT": 0.00026635, "MEAN_MOTION_DDOT": 0}, "tle": {"line1": "1 50621U 82092ALR 25360.17459441  .00026635  00000+0  35611-3 0  9996", "line2": "2 50621  82.5694  60.1870 0029295 104.4386 256.0123 15.57350800224590"}}, "geometry": {"type": "Point", "coordinates": [-124.39915417398248, 25.400139989085233]}}]}